CCSDS_OMM_VERS = 2.0
CREATION_DATE  = 
ORIGINATOR     = 

OBJECT_NAME    = SOYUZ-MS 28
OBJECT_ID      = 2025-275A
CENTER_NAME    = EARTH
REF_FRAME      = TEME
TIME_SYSTEM    = UTC
MEAN_ELEMENT_THEORY = SGP/SGP4

EPOCH          = 2026-01-01T18:58:54.170400
MEAN_MOTION    = 15.49013666
ECCENTRICITY   = .00075024
INCLINATION    = 51.6329
RA_OF_ASC_NODE = 43.1850
ARG_OF_PERICENTER = 328.5908
MEAN_ANOMALY   = 31.4631

EPHEMERIS_TYPE = 0
CLASSIFICATION_TYPE = U
NORAD_CAT_ID   = 66664
ELEMENT_SET_NO = 999
REV_AT_EPOCH   = 128
BSTAR          = .2633784E-3
MEAN_MOTION_DOT = .14103E-3
MEAN_MOTION_DDOT = 0

CCSDS_OMM_VERS = 2.0
CREATION_DATE  = 
ORIGINATOR     = 

OBJECT_NAME    = 1998-067XS
OBJECT_ID      = 1998-067XS
CENTER_NAME    = EARTH
REF_FRAME      = TEME
TIME_SYSTEM    = UTC
MEAN_ELEMENT_THEORY = SGP/SGP4

EPOCH          = 2026-01-01T13:44:51.902016
MEAN_MOTION    = 15.51757321
ECCENTRICITY   = .0002498
INCLINATION    = 51.6323
RA_OF_ASC_NODE = 43.9794
ARG_OF_PERICENTER = 307.6709
MEAN_ANOMALY   = 52.4054

EPHEMERIS_TYPE = 0
CLASSIFICATION_TYPE = U
NORAD_CAT_ID   = 66906
ELEMENT_SET_NO = 999
REV_AT_EPOCH   = 469
BSTAR          = .66629E-3
MEAN_MOTION_DOT = .40223E-3
MEAN_MOTION_DDOT = 0

CCSDS_OMM_VERS = 2.0
CREATION_DATE  = 
ORIGINATOR     = 

OBJECT_NAME    = 1998-067XT
OBJECT_ID      = 1998-067XT
CENTER_NAME    = EARTH
REF_FRAME      = TEME
TIME_SYSTEM    = UTC
MEAN_ELEMENT_THEORY = SGP/SGP4

EPOCH          = 2026-01-01T11:38:51.689472
MEAN_MOTION    = 15.54256300
ECCENTRICITY   = .0003846
INCLINATION    = 51.6313
RA_OF_ASC_NODE = 44.1454
ARG_OF_PERICENTER = 349.6715
MEAN_ANOMALY   = 10.4196

EPHEMERIS_TYPE = 0
CLASSIFICATION_TYPE = U
NORAD_CAT_ID   = 66907
ELEMENT_SET_NO = 999
REV_AT_EPOCH   = 468
BSTAR          = .13893E-2
MEAN_MOTION_DOT = .9302E-3
MEAN_MOTION_DDOT = 0

CCSDS_OMM_VERS = 2.0
CREATION_DATE  = 
ORIGINATOR     = 

OBJECT_NAME    = 1998-067XU
OBJECT_ID      = 1998-067XU
CENTER_NAME    = EARTH
REF_FRAME      = TEME
TIME_SYSTEM    = UTC
MEAN_ELEMENT_THEORY = SGP/SGP4

EPOCH          = 2026-01-01T06:59:29.130432
MEAN_MOTION    = 15.54176560
ECCENTRICITY   = .0003949
INCLINATION    = 51.6307
RA_OF_ASC_NODE = 45.0994
ARG_OF_PERICENTER = 344.5705
MEAN_ANOMALY   = 15.5165

EPHEMERIS_TYPE = 0
CLASSIFICATION_TYPE = U
NORAD_CAT_ID   = 66908
ELEMENT_SET_NO = 999
REV_AT_EPOCH   = 465
BSTAR          = .133E-2
MEAN_MOTION_DOT = .88726E-3
MEAN_MOTION_DDOT = 0

CCSDS_OMM_VERS = 2.0
CREATION_DATE  = 
ORIGINATOR     = 

OBJECT_NAME    = SILVERSAT
OBJECT_ID      = 1998-067XV
CENTER_NAME    = EARTH
REF_FRAME      = TEME
TIME_SYSTEM    = UTC
MEAN_ELEMENT_THEORY = SGP/SGP4

EPOCH          = 2026-01-01T11:32:22.765920
MEAN_MOTION    = 15.54707895
ECCENTRICITY   = .0003986
INCLINATION    = 51.6306
RA_OF_ASC_NODE = 44.1149
ARG_OF_PERICENTER = 352.8495
MEAN_ANOMALY   = 7.2438

EPHEMERIS_TYPE = 0
CLASSIFICATION_TYPE = U
NORAD_CAT_ID   = 66909
ELEMENT_SET_NO = 999
REV_AT_EPOCH   = 468
BSTAR          = .15071E-2
MEAN_MOTION_DOT = .102768E-2
MEAN_MOTION_DDOT = 0

CCSDS_OMM_VERS = 2.0
CREATION_DATE  = 
ORIGINATOR     = 

OBJECT_NAME    = 1998-067XW
OBJECT_ID      = 1998-067XW
CENTER_NAME    = EARTH
REF_FRAME      = TEME
TIME_SYSTEM    = UTC
MEAN_ELEMENT_THEORY = SGP/SGP4

EPOCH          = 2026-01-01T13:03:30.863808
MEAN_MOTION    = 15.54525863
ECCENTRICITY   = .0003274
INCLINATION    = 51.6307
RA_OF_ASC_NODE = 43.7876
ARG_OF_PERICENTER = 324.6151
MEAN_ANOMALY   = 35.4622

EPHEMERIS_TYPE = 0
CLASSIFICATION_TYPE = U
NORAD_CAT_ID   = 66910
ELEMENT_SET_NO = 999
REV_AT_EPOCH   = 469
BSTAR          = .16086E-2
MEAN_MOTION_DOT = .10907E-2
MEAN_MOTION_DDOT = 0

CCSDS_OMM_VERS = 2.0
CREATION_DATE  = 
ORIGINATOR     = 

OBJECT_NAME    = 1998-067XX
OBJECT_ID      = 1998-067XX
CENTER_NAME    = EARTH
REF_FRAME      = TEME
TIME_SYSTEM    = UTC
MEAN_ELEMENT_THEORY = SGP/SGP4

EPOCH          = 2026-01-01T09:48:30.269088
MEAN_MOTION    = 15.55275272
ECCENTRICITY   = .0003115
INCLINATION    = 51.6313
RA_OF_ASC_NODE = 44.3841
ARG_OF_PERICENTER = 337.3069
MEAN_ANOMALY   = 22.7784

EPHEMERIS_TYPE = 0
CLASSIFICATION_TYPE = U
NORAD_CAT_ID   = 66911
ELEMENT_SET_NO = 999
REV_AT_EPOCH   = 466
BSTAR          = .16421E-2
MEAN_MOTION_DOT = .114538E-2
MEAN_MOTION_DDOT = 0

CCSDS_OMM_VERS = 2.0
CREATION_DATE  = 
ORIGINATOR     = 

OBJECT_NAME    = 1998-067XY
OBJECT_ID      = 1998-067XY
CENTER_NAME    = EARTH
REF_FRAME      = TEME
TIME_SYSTEM    = UTC
MEAN_ELEMENT_THEORY = SGP/SGP4

EPOCH          = 2026-01-01T11:50:57.320736
MEAN_MOTION    = 15.53331464
ECCENTRICITY   = .0003721
INCLINATION    = 51.6322
RA_OF_ASC_NODE = 44.2017
ARG_OF_PERICENTER = 337.2951
MEAN_ANOMALY   = 22.7874

EPHEMERIS_TYPE = 0
CLASSIFICATION_TYPE = U
NORAD_CAT_ID   = 66912
ELEMENT_SET_NO = 999
REV_AT_EPOCH   = 467
BSTAR          = .11042E-2
MEAN_MOTION_DOT = .71184E-3
MEAN_MOTION_DDOT = 0

