SOYUZ-MS 28             
1 66664U 25275A   26001.79090475  .00014103  00000+0  26338-3 0  9992
2 66664  51.6329  43.1850 0007502 328.5908  31.4631 15.49013666  1286
1998-067XS              
1 66906U 98067XS  26001.57282294  .00040223  00000+0  66629-3 0  9997
2 66906  51.6323  43.9794 0002498 307.6709  52.4054 15.51757321  4696
1998-067XT              
1 66907U 98067XT  26001.48532048  .00093020  00000+0  13893-2 0  9990
2 66907  51.6313  44.1454 0003846 349.6715  10.4196 15.54256300  4687
1998-067XU              
1 66908U 98067XU  26001.29130938  .00088726  00000+0  13300-2 0  9992
2 66908  51.6307  45.0994 0003949 344.5705  15.5165 15.54176560  4655
SILVERSAT               
1 66909U 98067XV  26001.48081905  .00102768  00000+0  15071-2 0  9993
2 66909  51.6306  44.1149 0003986 352.8495   7.2438 15.54707895  4681
1998-067XW              
1 66910U 98067XW  26001.54410722  .00109070  00000+0  16086-2 0  9995
2 66910  51.6307  43.7876 0003274 324.6151  35.4622 15.54525863  4694
1998-067XX              
1 66911U 98067XX  26001.40868367  .00114538  00000+0  16421-2 0  9991
2 66911  51.6313  44.3841 0003115 337.3069  22.7784 15.55275272  4666
1998-067XY              
1 66912U 98067XY  26001.49371899  .00071184  00000+0  11042-2 0  9993
2 66912  51.6322  44.2017 0003721 337.2951  22.7874 15.53331464  4678
